{"type": "FeatureCollection", "features": [ {"type": "Feature", "properties": {"norad_id": 54234, "name": "NOAA 21 (JPSS-2)", "group": "weather", "lat": 76.38954411216999, "lon": 140.60162152473455, "alt_km": 818.8683387337041, "timestamp": "2025-12-10T18:56:59.705204+00:00", "meta": {"OBJECT_NAME": "NOAA 21 (JPSS-2)", "OBJECT_ID": "2022-150A", "EPOCH": "2025-12-10T11:42:43.272576", "MEAN_MOTION": 14.19523297, "ECCENTRICITY": 0.0002301, "INCLINATION": 98.7459, "RA_OF_ASC_NODE": 280.8244, "ARG_OF_PERICENTER": 42.3573, "MEAN_ANOMALY": 317.778, "EPHEMERIS_TYPE": 0, "CLASSIFICATION_TYPE": "U", "NORAD_CAT_ID": 54234, "ELEMENT_SET_NO": 999, "REV_AT_EPOCH": 15977, "BSTAR": 0.00011014, "MEAN_MOTION_DOT": 1.88e-06, "MEAN_MOTION_DDOT": 0}, "tle": {"line1": "1 54234U 22150A   25344.48800084  .00000188  00000+0  11014-3 0  9994", "line2": "2 54234  98.7459 280.8244 0002301  42.3573 317.7780 14.19523297159775"}}, "geometry": {"type": "Point", "coordinates": [140.60162152473455, 76.38954411216999]}}, {"type": "Feature", "properties": {"norad_id": 54743, "name": "METEOSAT-12 (MTG-I1)", "group": "weather", "lat": -0.219914797414018, "lon": 3.7902870400521262, "alt_km": 35789.07151370426, "timestamp": "2025-12-10T18:56:59.705217+00:00", "meta": {"OBJECT_NAME": "METEOSAT-12 (MTG-I1)", "OBJECT_ID": "2022-170C", "EPOCH": "2025-12-10T06:29:38.861088", "MEAN_MOTION": 1.00267149, "ECCENTRICITY": 0.0001835, "INCLINATION": 0.6844, "RA_OF_ASC_NODE": 23.1553, "ARG_OF_PERICENTER": 238.1267, "MEAN_ANOMALY": 275.1497, "EPHEMERIS_TYPE": 0, "CLASSIFICATION_TYPE": "U", "NORAD_CAT_ID": 54743, "ELEMENT_SET_NO": 999, "REV_AT_EPOCH": 1108, "BSTAR": 0, "MEAN_MOTION_DOT": -4e-08, "MEAN_MOTION_DDOT": 0}, "tle": {"line1": "1 54743U 22170C   25344.27058867 -.00000004  00000+0  00000+0 0  9999", "line2": "2 54743   0.6844  23.1553 0001835 238.1267 275.1497  1.00267149 11087"}}, "geometry": {"type": "Point", "coordinates": [3.7902870400521262, -0.219914797414018]}}, {"type": "Feature", "properties": {"norad_id": 55973, "name": "TIANMU-1 03", "group": "weather", "lat": -73.79013428798059, "lon": -59.60522801358127, "alt_km": 453.99804524520005, "timestamp": "2025-12-10T18:56:59.705228+00:00", "meta": {"OBJECT_NAME": "TIANMU-1 03", "OBJECT_ID": "2023-039A", "EPOCH": "2025-12-10T11:36:34.881984", "MEAN_MOTION": 15.40816842, "ECCENTRICITY": 0.0004473, "INCLINATION": 97.5112, "RA_OF_ASC_NODE": 147.0725, "ARG_OF_PERICENTER": 67.2171, "MEAN_ANOMALY": 292.9547, "EPHEMERIS_TYPE": 0, "CLASSIFICATION_TYPE": "U", "NORAD_CAT_ID": 55973, "ELEMENT_SET_NO": 999, "REV_AT_EPOCH": 15171, "BSTAR": 0.00055797, "MEAN_MOTION_DOT": 0.00022828, "MEAN_MOTION_DDOT": 0}, "tle": {"line1": "1 55973U 23039A   25344.48373706  .00022828  00000+0  55797-3 0  9999", "line2": "2 55973  97.5112 147.0725 0004473  67.2171 292.9547 15.40816842151716"}}, "geometry": {"type": "Point", "coordinates": [-59.60522801358127, -73.79013428798059]}}, {"type": "Feature", "properties": {"norad_id": 55974, "name": "TIANMU-1 04", "group": "weather", "lat": 6.951589710199949, "lon": 145.65762210487406, "alt_km": 442.80257990070186, "timestamp": "2025-12-10T18:56:59.705239+00:00", "meta": {"OBJECT_NAME": "TIANMU-1 04", "OBJECT_ID": "2023-039B", "EPOCH": "2025-12-10T12:41:11.311296", "MEAN_MOTION": 15.41154329, "ECCENTRICITY": 0.000515, "INCLINATION": 97.5043, "RA_OF_ASC_NODE": 146.3105, "ARG_OF_PERICENTER": 62.8679, "MEAN_ANOMALY": 297.3092, "EPHEMERIS_TYPE": 0, "CLASSIFICATION_TYPE": "U", "NORAD_CAT_ID": 55974, "ELEMENT_SET_NO": 999, "REV_AT_EPOCH": 15172, "BSTAR": 0.00053981, "MEAN_MOTION_DOT": 0.00022331, "MEAN_MOTION_DDOT": 0}, "tle": {"line1": "1 55974U 23039B   25344.52860314  .00022331  00000+0  53981-3 0  9993", "line2": "2 55974  97.5043 146.3105 0005150  62.8679 297.3092 15.41154329151722"}}, "geometry": {"type": "Point", "coordinates": [145.65762210487406, 6.951589710199949]}}, {"type": "Feature", "properties": {"norad_id": 55975, "name": "TIANMU-1 05", "group": "weather", "lat": 41.17782822432857, "lon": 140.44521018925786, "alt_km": 438.34092104673164, "timestamp": "2025-12-10T18:56:59.705249+00:00", "meta": {"OBJECT_NAME": "TIANMU-1 05", "OBJECT_ID": "2023-039C", "EPOCH": "2025-12-10T12:32:07.223712", "MEAN_MOTION": 15.40777145, "ECCENTRICITY": 0.0004368, "INCLINATION": 97.5089, "RA_OF_ASC_NODE": 146.7964, "ARG_OF_PERICENTER": 84.1764, "MEAN_ANOMALY": 275.9979, "EPHEMERIS_TYPE": 0, "CLASSIFICATION_TYPE": "U", "NORAD_CAT_ID": 55975, "ELEMENT_SET_NO": 999, "REV_AT_EPOCH": 15170, "BSTAR": 0.00052701, "MEAN_MOTION_DOT": 0.00021524, "MEAN_MOTION_DDOT": 0}, "tle": {"line1": "1 55975U 23039C   25344.52230583  .00021524  00000+0  52701-3 0  9995", "line2": "2 55975  97.5089 146.7964 0004368  84.1764 275.9979 15.40777145151702"}}, "geometry": {"type": "Point", "coordinates": [140.44521018925786, 41.17782822432857]}}, {"type": "Feature", "properties": {"norad_id": 55976, "name": "TIANMU-1 06", "group": "weather", "lat": -5.37372190297702, "lon": 148.24529684784574, "alt_km": 445.9758913746655, "timestamp": "2025-12-10T18:56:59.705259+00:00", "meta": {"OBJECT_NAME": "TIANMU-1 06", "OBJECT_ID": "2023-039D", "EPOCH": "2025-12-10T12:44:25.672416", "MEAN_MOTION": 15.41206482, "ECCENTRICITY": 0.000471, "INCLINATION": 97.51, "RA_OF_ASC_NODE": 147.2683, "ARG_OF_PERICENTER": 79.8382, "MEAN_ANOMALY": 280.3395, "EPHEMERIS_TYPE": 0, "CLASSIFICATION_TYPE": "U", "NORAD_CAT_ID": 55976, "ELEMENT_SET_NO": 999, "REV_AT_EPOCH": 15172, "BSTAR": 0.00052943, "MEAN_MOTION_DOT": 0.00021935, "MEAN_MOTION_DDOT": 0}, "tle": {"line1": "1 55976U 23039D   25344.53085269  .00021935  00000+0  52943-3 0  9990", "line2": "2 55976  97.5100 147.2683 0004710  79.8382 280.3395 15.41206482151725"}}, "geometry": {"type": "Point", "coordinates": [148.24529684784574, -5.37372190297702]}}, {"type": "Feature", "properties": {"norad_id": 56232, "name": "FENGYUN 3G", "group": "weather", "lat": -21.016278391770374, "lon": -141.30955581214585, "alt_km": 415.60026244678465, "timestamp": "2025-12-10T18:56:59.705269+00:00", "meta": {"OBJECT_NAME": "FENGYUN 3G", "OBJECT_ID": "2023-055A", "EPOCH": "2025-12-10T05:10:32.979072", "MEAN_MOTION": 15.53405628, "ECCENTRICITY": 0.000929, "INCLINATION": 49.9931, "RA_OF_ASC_NODE": 240.4781, "ARG_OF_PERICENTER": 136.4608, "MEAN_ANOMALY": 223.7095, "EPHEMERIS_TYPE": 0, "CLASSIFICATION_TYPE": "U", "NORAD_CAT_ID": 56232, "ELEMENT_SET_NO": 999, "REV_AT_EPOCH": 15063, "BSTAR": 0.00066182, "MEAN_MOTION_DOT": 0.00042561, "MEAN_MOTION_DDOT": 0}, "tle": {"line1": "1 56232U 23055A   25344.21565948  .00042561  00000+0  66182-3 0  9994", "line2": "2 56232  49.9931 240.4781 0009290 136.4608 223.7095 15.53405628150631"}}, "geometry": {"type": "Point", "coordinates": [-141.30955581214585, -21.016278391770374]}}, {"type": "Feature", "properties": {"norad_id": 57166, "name": "METEOR-M2 3", "group": "weather", "lat": -24.392394567429992, "lon": 42.31553366180573, "alt_km": 815.0009924101214, "timestamp": "2025-12-10T18:56:59.705281+00:00", "meta": {"OBJECT_NAME": "METEOR-M2 3", "OBJECT_ID": "2023-091A", "EPOCH": "2025-12-10T12:19:12.906912", "MEAN_MOTION": 14.24025728, "ECCENTRICITY": 0.0004035, "INCLINATION": 98.6381, "RA_OF_ASC_NODE": 38.0915, "ARG_OF_PERICENTER": 15.0793, "MEAN_ANOMALY": 345.0505, "EPHEMERIS_TYPE": 0, "CLASSIFICATION_TYPE": "U", "NORAD_CAT_ID": 57166, "ELEMENT_SET_NO": 999, "REV_AT_EPOCH": 12766, "BSTAR": 3.8732e-05, "MEAN_MOTION_DOT": 4.5e-07, "MEAN_MOTION_DDOT": 0}, "tle": {"line1": "1 57166U 23091A   25344.51334383  .00000045  00000+0  38732-4 0  9993", "line2": "2 57166  98.6381  38.0915 0004035  15.0793 345.0505 14.24025728127664"}}, "geometry": {"type": "Point", "coordinates": [42.31553366180573, -24.392394567429992]}}, {"type": "Feature", "properties": {"norad_id": 57399, "name": "TIANMU-1 07", "group": "weather", "lat": 26.180012119654158, "lon": -141.7107781475398, "alt_km": 479.4101928801447, "timestamp": "2025-12-10T18:56:59.705294+00:00", "meta": {"OBJECT_NAME": "TIANMU-1 07", "OBJECT_ID": "2023-101A", "EPOCH": "2025-12-10T11:59:39.233760", "MEAN_MOTION": 15.28017883, "ECCENTRICITY": 0.000561, "INCLINATION": 97.2877, "RA_OF_ASC_NODE": 34.3986, "ARG_OF_PERICENTER": 87.2315, "MEAN_ANOMALY": 272.9567, "EPHEMERIS_TYPE": 0, "CLASSIFICATION_TYPE": "U", "NORAD_CAT_ID": 57399, "ELEMENT_SET_NO": 999, "REV_AT_EPOCH": 13281, "BSTAR": 0.00041993, "MEAN_MOTION_DOT": 0.00011415, "MEAN_MOTION_DDOT": 0}, "tle": {"line1": "1 57399U 23101A   25344.49975965  .00011415  00000+0  41993-3 0  9992", "line2": "2 57399  97.2877  34.3986 0005610  87.2315 272.9567 15.28017883132812"}}, "geometry": {"type": "Point", "coordinates": [-141.7107781475398, 26.180012119654158]}}, {"type": "Feature", "properties": {"norad_id": 57400, "name": "TIANMU-1 08", "group": "weather", "lat": -24.706391775635367, "lon": 37.855407851705, "alt_km": 489.5305031349617, "timestamp": "2025-12-10T18:56:59.705308+00:00", "meta": {"OBJECT_NAME": "TIANMU-1 08", "OBJECT_ID": "2023-101B", "EPOCH": "2025-12-10T09:37:43.089888", "MEAN_MOTION": 15.27999705, "ECCENTRICITY": 0.0007571, "INCLINATION": 97.2866, "RA_OF_ASC_NODE": 34.1007, "ARG_OF_PERICENTER": 90.3396, "MEAN_ANOMALY": 269.8711, "EPHEMERIS_TYPE": 0, "CLASSIFICATION_TYPE": "U", "NORAD_CAT_ID": 57400, "ELEMENT_SET_NO": 999, "REV_AT_EPOCH": 13279, "BSTAR": 0.00039173, "MEAN_MOTION_DOT": 0.00010641, "MEAN_MOTION_DDOT": 0}, "tle": {"line1": "1 57400U 23101B   25344.40119317  .00010641  00000+0  39173-3 0  9994", "line2": "2 57400  97.2866  34.1007 0007571  90.3396 269.8711 15.27999705132791"}}, "geometry": {"type": "Point", "coordinates": [37.855407851705, -24.706391775635367]}}]}